{
  "type": "FeatureCollection",
  "features": [
    {
      "type": "Feature",
      "properties": {
        "norad_id": 43260,
        "name": "GAOFEN-1 03",
        "group": "resource",
        "lat": -77.09086581939845,
        "lon": 76.82965406220694,
        "alt_km": 647.3272201312502,
        "timestamp": "2025-12-06T20:37:55.716732+00:00",
        "meta_object_name": "GAOFEN-1 03",
        "meta_object_id": "2018-031B",
        "meta_epoch": "2025-12-06T14:29:14.312832",
        "meta_mean_motion": 14.76417917,
        "meta_eccentricity": 0.00023747,
        "meta_inclination": 98.0805,
        "meta_ra_of_asc_node": 38.2682,
        "meta_arg_of_pericenter": 347.8557,
        "meta_mean_anomaly": 12.2595,
        "meta_ephemeris_type": 0,
        "meta_classification_type": "U",
        "meta_norad_cat_id": 43260,
        "meta_element_set_no": 999,
        "meta_rev_at_epoch": 41427,
        "meta_bstar": 0.00030347646,
        "meta_mean_motion_dot": 2.058e-05,
        "meta_mean_motion_ddot": 0,
        "tle_line1": "1 43260U 18031B   25340.60363788  .00002058  00000+0  30348-3 0  9998",
        "tle_line2": "2 43260  98.0805  38.2682 0002374 347.8557  12.2595 14.76417917414270"
      },
      "geometry": {
        "type": "Point",
        "coordinates": [
          76.82965406220694,
          -77.09086581939845
        ]
      }
    },
    {
      "type": "Feature",
      "properties": {
        "norad_id": 43262,
        "name": "GAOFEN-1 04",
        "group": "resource",
        "lat": 48.51475079141539,
        "lon": 29.446398284106877,
        "alt_km": 635.4086426407857,
        "timestamp": "2025-12-06T20:37:55.716743+00:00",
        "meta_object_name": "GAOFEN-1 04",
        "meta_object_id": "2018-031D",
        "meta_epoch": "2025-12-06T15:31:50.441376",
        "meta_mean_motion": 14.76431162,
        "meta_eccentricity": 0.0001238,
        "meta_inclination": 98.0814,
        "meta_ra_of_asc_node": 38.4802,
        "meta_arg_of_pericenter": 62.1008,
        "meta_mean_anomaly": 298.0326,
        "meta_ephemeris_type": 0,
        "meta_classification_type": "U",
        "meta_norad_cat_id": 43262,
        "meta_element_set_no": 999,
        "meta_rev_at_epoch": 41427,
        "meta_bstar": 0.00028992496,
        "meta_mean_motion_dot": 1.964e-05,
        "meta_mean_motion_ddot": 0,
        "tle_line1": "1 43262U 18031D   25340.64711159  .00001964  00000+0  28992-3 0  9990",
        "tle_line2": "2 43262  98.0814  38.4802 0001238  62.1008 298.0326 14.76431162414278"
      },
      "geometry": {
        "type": "Point",
        "coordinates": [
          29.446398284106877,
          48.51475079141539
        ]
      }
    },
    {
      "type": "Feature",
      "properties": {
        "norad_id": 43437,
        "name": "SENTINEL-3B",
        "group": "resource",
        "lat": -6.318765737982067,
        "lon": -134.83438209027145,
        "alt_km": 806.1385650351522,
        "timestamp": "2025-12-06T20:37:55.716755+00:00",
        "meta_object_name": "SENTINEL-3B",
        "meta_object_id": "2018-039A",
        "meta_epoch": "2025-12-06T14:42:45.455040",
        "meta_mean_motion": 14.26739322,
        "meta_eccentricity": 0.000152,
        "meta_inclination": 98.6274,
        "meta_ra_of_asc_node": 45.8858,
        "meta_arg_of_pericenter": 108.8359,
        "meta_mean_anomaly": 251.2987,
        "meta_ephemeris_type": 0,
        "meta_classification_type": "U",
        "meta_norad_cat_id": 43437,
        "meta_element_set_no": 999,
        "meta_rev_at_epoch": 39666,
        "meta_bstar": 0.00014824281,
        "meta_mean_motion_dot": 3.15e-06,
        "meta_mean_motion_ddot": 0,
        "tle_line1": "1 43437U 18039A   25340.61302610  .00000315  00000+0  14824-3 0  9995",
        "tle_line2": "2 43437  98.6274  45.8858 0001520 108.8359 251.2987 14.26739322396662"
      },
      "geometry": {
        "type": "Point",
        "coordinates": [
          -134.83438209027145,
          -6.318765737982067
        ]
      }
    },
    {
      "type": "Feature",
      "properties": {
        "norad_id": 43461,
        "name": "GAOFEN-5 01",
        "group": "resource",
        "lat": -3.8406704506415745,
        "lon": 123.15399406786054,
        "alt_km": 696.308409437067,
        "timestamp": "2025-12-06T20:37:55.716766+00:00",
        "meta_object_name": "GAOFEN-5 01",
        "meta_object_id": "2018-043A",
        "meta_epoch": "2025-12-06T14:51:36.940320",
        "meta_mean_motion": 14.60399549,
        "meta_eccentricity": 0.00013604,
        "meta_inclination": 98.4316,
        "meta_ra_of_asc_node": 303.4799,
        "meta_arg_of_pericenter": 1.2654,
        "meta_mean_anomaly": 358.8549,
        "meta_ephemeris_type": 0,
        "meta_classification_type": "U",
        "meta_norad_cat_id": 43461,
        "meta_element_set_no": 999,
        "meta_rev_at_epoch": 40358,
        "meta_bstar": 0.0002167334,
        "meta_mean_motion_dot": 1e-05,
        "meta_mean_motion_ddot": 0,
        "tle_line1": "1 43461U 18043A   25340.61917755  .00001000  00000+0  21673-3 0  9991",
        "tle_line2": "2 43461  98.4316 303.4799 0001360   1.2654 358.8549 14.60399549403586"
      },
      "geometry": {
        "type": "Point",
        "coordinates": [
          123.15399406786054,
          -3.8406704506415745
        ]
      }
    },
    {
      "type": "Feature",
      "properties": {
        "norad_id": 43484,
        "name": "GAOFEN-6",
        "group": "resource",
        "lat": -18.162291237827954,
        "lon": -137.2548151256532,
        "alt_km": 649.5383254938406,
        "timestamp": "2025-12-06T20:37:55.716777+00:00",
        "meta_object_name": "GAOFEN-6",
        "meta_object_id": "2018-048A",
        "meta_epoch": "2025-12-06T14:51:33.376320",
        "meta_mean_motion": 14.76549612,
        "meta_eccentricity": 0.00133079,
        "meta_inclination": 97.804,
        "meta_ra_of_asc_node": 45.0914,
        "meta_arg_of_pericenter": 81.8206,
        "meta_mean_anomaly": 278.4513,
        "meta_ephemeris_type": 0,
        "meta_classification_type": "U",
        "meta_norad_cat_id": 43484,
        "meta_element_set_no": 999,
        "meta_rev_at_epoch": 40497,
        "meta_bstar": 0.00024653973,
        "meta_mean_motion_dot": 1.672e-05,
        "meta_mean_motion_ddot": 0,
        "tle_line1": "1 43484U 18048A   25340.61913630  .00001672  00000+0  24654-3 0  9996",
        "tle_line2": "2 43484  97.8040  45.0914 0013307  81.8206 278.4513 14.76549612404974"
      },
      "geometry": {
        "type": "Point",
        "coordinates": [
          -137.2548151256532,
          -18.162291237827954
        ]
      }
    },
    {
      "type": "Feature",
      "properties": {
        "norad_id": 43585,
        "name": "GAOFEN-11 01",
        "group": "resource",
        "lat": -82.6293198937085,
        "lon": 120.09395786942314,
        "alt_km": 425.90118720798637,
        "timestamp": "2025-12-06T20:37:55.716788+00:00",
        "meta_object_name": "GAOFEN-11 01",
        "meta_object_id": "2018-063A",
        "meta_epoch": "2025-12-06T14:48:38.595168",
        "meta_mean_motion": 15.48969162,
        "meta_eccentricity": 0.00046641,
        "meta_inclination": 97.1566,
        "meta_ra_of_asc_node": 43.6038,
        "meta_arg_of_pericenter": 340.7444,
        "meta_mean_anomaly": 19.363,
        "meta_ephemeris_type": 0,
        "meta_classification_type": "U",
        "meta_norad_cat_id": 43585,
        "meta_element_set_no": 999,
        "meta_rev_at_epoch": 41047,
        "meta_bstar": 0.00040886022,
        "meta_mean_motion_dot": 0.00022048,
        "meta_mean_motion_ddot": 0,
        "tle_line1": "1 43585U 18063A   25340.61711337  .00022048  00000+0  40886-3 0  9990",
        "tle_line2": "2 43585  97.1566  43.6038 0004664 340.7444  19.3630 15.48969162410470"
      },
      "geometry": {
        "type": "Point",
        "coordinates": [
          120.09395786942314,
          -82.6293198937085
        ]
      }
    },
    {
      "type": "Feature",
      "properties": {
        "norad_id": 43613,
        "name": "ICESAT-2",
        "group": "resource",
        "lat": 87.95870352469554,
        "lon": 159.74765327682607,
        "alt_km": 473.39210473253206,
        "timestamp": "2025-12-06T20:37:55.716799+00:00",
        "meta_object_name": "ICESAT-2",
        "meta_object_id": "2018-070A",
        "meta_epoch": "2025-12-06T15:31:35.712768",
        "meta_mean_motion": 15.28172699,
        "meta_eccentricity": 0.00017445,
        "meta_inclination": 92.0051,
        "meta_ra_of_asc_node": 239.0928,
        "meta_arg_of_pericenter": 161.9504,
        "meta_mean_anomaly": 198.1808,
        "meta_ephemeris_type": 0,
        "meta_classification_type": "U",
        "meta_norad_cat_id": 43613,
        "meta_element_set_no": 999,
        "meta_rev_at_epoch": 40305,
        "meta_bstar": 0.00076662964,
        "meta_mean_motion_dot": 0.0002107,
        "meta_mean_motion_ddot": 0,
        "tle_line1": "1 43613U 18070A   25340.64694112  .00021070  00000+0  76663-3 0  9990",
        "tle_line2": "2 43613  92.0051 239.0928 0001744 161.9504 198.1808 15.28172699403058"
      },
      "geometry": {
        "type": "Point",
        "coordinates": [
          159.74765327682607,
          87.95870352469554
        ]
      }
    }
  ]
}